CCSDS_OMM_VERS = 2.0
CREATION_DATE  = 
ORIGINATOR     = 

OBJECT_NAME    = 2025-313S
OBJECT_ID      = 2025-313S
CENTER_NAME    = EARTH
REF_FRAME      = TEME
TIME_SYSTEM    = UTC
MEAN_ELEMENT_THEORY = SGP/SGP4

EPOCH          = 2026-01-18T14:41:22.808256
MEAN_MOTION    = 15.20084047
ECCENTRICITY   = .00159268
INCLINATION    = 97.4196
RA_OF_ASC_NODE = 95.7212
ARG_OF_PERICENTER = 169.0922
MEAN_ANOMALY   = 191.0661

EPHEMERIS_TYPE = 0
CLASSIFICATION_TYPE = U
NORAD_CAT_ID   = 67264
ELEMENT_SET_NO = 999
REV_AT_EPOCH   = 320
BSTAR          = .28841421E-3
MEAN_MOTION_DOT = .6179E-4
MEAN_MOTION_DDOT = 0

CCSDS_OMM_VERS = 2.0
CREATION_DATE  = 
ORIGINATOR     = 

OBJECT_NAME    = SITRO-TD-4
OBJECT_ID      = 2025-313T
CENTER_NAME    = EARTH
REF_FRAME      = TEME
TIME_SYSTEM    = UTC
MEAN_ELEMENT_THEORY = SGP/SGP4

EPOCH          = 2026-01-18T14:39:16.645248
MEAN_MOTION    = 15.20249989
ECCENTRICITY   = .0015855
INCLINATION    = 97.4107
RA_OF_ASC_NODE = 95.7155
ARG_OF_PERICENTER = 164.9161
MEAN_ANOMALY   = 195.2550

EPHEMERIS_TYPE = 0
CLASSIFICATION_TYPE = U
NORAD_CAT_ID   = 67265
ELEMENT_SET_NO = 999
REV_AT_EPOCH   = 320
BSTAR          = .43173186E-3
MEAN_MOTION_DOT = .9333E-4
MEAN_MOTION_DDOT = 0

CCSDS_OMM_VERS = 2.0
CREATION_DATE  = 
ORIGINATOR     = 

OBJECT_NAME    = SITRO-AIS-65
OBJECT_ID      = 2025-313U
CENTER_NAME    = EARTH
REF_FRAME      = TEME
TIME_SYSTEM    = UTC
MEAN_ELEMENT_THEORY = SGP/SGP4

EPOCH          = 2026-01-18T14:39:09.997632
MEAN_MOTION    = 15.20257827
ECCENTRICITY   = .00157787
INCLINATION    = 97.4135
RA_OF_ASC_NODE = 95.7225
ARG_OF_PERICENTER = 163.6330
MEAN_ANOMALY   = 196.5418

EPHEMERIS_TYPE = 0
CLASSIFICATION_TYPE = U
NORAD_CAT_ID   = 67266
ELEMENT_SET_NO = 999
REV_AT_EPOCH   = 320
BSTAR          = .43011532E-3
MEAN_MOTION_DOT = .93E-4
MEAN_MOTION_DDOT = 0

CCSDS_OMM_VERS = 2.0
CREATION_DATE  = 
ORIGINATOR     = 

OBJECT_NAME    = 2025-313V
OBJECT_ID      = 2025-313V
CENTER_NAME    = EARTH
REF_FRAME      = TEME
TIME_SYSTEM    = UTC
MEAN_ELEMENT_THEORY = SGP/SGP4

EPOCH          = 2026-01-18T14:38:20.239008
MEAN_MOTION    = 15.20329108
ECCENTRICITY   = .00149724
INCLINATION    = 97.4117
RA_OF_ASC_NODE = 95.7099
ARG_OF_PERICENTER = 169.1194
MEAN_ANOMALY   = 191.0368

EPHEMERIS_TYPE = 0
CLASSIFICATION_TYPE = U
NORAD_CAT_ID   = 67267
ELEMENT_SET_NO = 999
REV_AT_EPOCH   = 320
BSTAR          = .48534541E-3
MEAN_MOTION_DOT = .10523E-3
MEAN_MOTION_DDOT = 0

CCSDS_OMM_VERS = 2.0
CREATION_DATE  = 
ORIGINATOR     = 

OBJECT_NAME    = ZORKY-2M 7
OBJECT_ID      = 2025-313W
CENTER_NAME    = EARTH
REF_FRAME      = TEME
TIME_SYSTEM    = UTC
MEAN_ELEMENT_THEORY = SGP/SGP4

EPOCH          = 2026-01-18T14:39:40.483008
MEAN_MOTION    = 15.20207240
ECCENTRICITY   = .00159464
INCLINATION    = 97.4117
RA_OF_ASC_NODE = 95.7070
ARG_OF_PERICENTER = 164.4073
MEAN_ANOMALY   = 195.7656

EPHEMERIS_TYPE = 0
CLASSIFICATION_TYPE = U
NORAD_CAT_ID   = 67268
ELEMENT_SET_NO = 999
REV_AT_EPOCH   = 320
BSTAR          = .39447503E-3
MEAN_MOTION_DOT = .8511E-4
MEAN_MOTION_DDOT = 0

CCSDS_OMM_VERS = 2.0
CREATION_DATE  = 
ORIGINATOR     = 

OBJECT_NAME    = 2025-313X
OBJECT_ID      = 2025-313X
CENTER_NAME    = EARTH
REF_FRAME      = TEME
TIME_SYSTEM    = UTC
MEAN_ELEMENT_THEORY = SGP/SGP4

EPOCH          = 2026-01-18T14:37:32.576448
MEAN_MOTION    = 15.20419346
ECCENTRICITY   = .00157335
INCLINATION    = 97.4144
RA_OF_ASC_NODE = 95.7259
ARG_OF_PERICENTER = 162.9660
MEAN_ANOMALY   = 197.2106

EPHEMERIS_TYPE = 0
CLASSIFICATION_TYPE = U
NORAD_CAT_ID   = 67269
ELEMENT_SET_NO = 999
REV_AT_EPOCH   = 320
BSTAR          = .58566919E-3
MEAN_MOTION_DOT = .12754E-3
MEAN_MOTION_DDOT = 0

CCSDS_OMM_VERS = 2.0
CREATION_DATE  = 
ORIGINATOR     = 

OBJECT_NAME    = SITRO-TD-3
OBJECT_ID      = 2025-313Y
CENTER_NAME    = EARTH
REF_FRAME      = TEME
TIME_SYSTEM    = UTC
MEAN_ELEMENT_THEORY = SGP/SGP4

EPOCH          = 2026-01-18T14:39:44.431488
MEAN_MOTION    = 15.20235006
ECCENTRICITY   = .00158836
INCLINATION    = 97.4117
RA_OF_ASC_NODE = 95.7175
ARG_OF_PERICENTER = 164.6087
MEAN_ANOMALY   = 195.5635

EPHEMERIS_TYPE = 0
CLASSIFICATION_TYPE = U
NORAD_CAT_ID   = 67270
ELEMENT_SET_NO = 999
REV_AT_EPOCH   = 320
BSTAR          = .4496302E-3
MEAN_MOTION_DOT = .9719E-4
MEAN_MOTION_DDOT = 0

CCSDS_OMM_VERS = 2.0
CREATION_DATE  = 
ORIGINATOR     = 

OBJECT_NAME    = 2025-313Z
OBJECT_ID      = 2025-313Z
CENTER_NAME    = EARTH
REF_FRAME      = TEME
TIME_SYSTEM    = UTC
MEAN_ELEMENT_THEORY = SGP/SGP4

EPOCH          = 2026-01-18T14:41:22.165440
MEAN_MOTION    = 15.20044837
ECCENTRICITY   = .00159587
INCLINATION    = 97.4111
RA_OF_ASC_NODE = 95.7063
ARG_OF_PERICENTER = 160.6302
MEAN_ANOMALY   = 199.5543

EPHEMERIS_TYPE = 0
CLASSIFICATION_TYPE = U
NORAD_CAT_ID   = 67271
ELEMENT_SET_NO = 999
REV_AT_EPOCH   = 320
BSTAR          = .23539631E-3
MEAN_MOTION_DOT = .5025E-4
MEAN_MOTION_DDOT = 0

CCSDS_OMM_VERS = 2.0
CREATION_DATE  = 
ORIGINATOR     = 

OBJECT_NAME    = 2025-313AA
OBJECT_ID      = 2025-313AA
CENTER_NAME    = EARTH
REF_FRAME      = TEME
TIME_SYSTEM    = UTC
MEAN_ELEMENT_THEORY = SGP/SGP4

EPOCH          = 2026-01-18T14:36:51.053472
MEAN_MOTION    = 15.20425916
ECCENTRICITY   = .00156239
INCLINATION    = 97.4116
RA_OF_ASC_NODE = 95.7090
ARG_OF_PERICENTER = 164.8911
MEAN_ANOMALY   = 195.2794

EPHEMERIS_TYPE = 0
CLASSIFICATION_TYPE = U
NORAD_CAT_ID   = 67272
ELEMENT_SET_NO = 999
REV_AT_EPOCH   = 320
BSTAR          = .49202386E-3
MEAN_MOTION_DOT = .10702E-3
MEAN_MOTION_DDOT = 0

CCSDS_OMM_VERS = 2.0
CREATION_DATE  = 
ORIGINATOR     = 

OBJECT_NAME    = 2025-313AB
OBJECT_ID      = 2025-313AB
CENTER_NAME    = EARTH
REF_FRAME      = TEME
TIME_SYSTEM    = UTC
MEAN_ELEMENT_THEORY = SGP/SGP4

EPOCH          = 2026-01-18T14:41:14.727264
MEAN_MOTION    = 15.20020387
ECCENTRICITY   = .00148854
INCLINATION    = 97.4128
RA_OF_ASC_NODE = 95.7102
ARG_OF_PERICENTER = 168.8709
MEAN_ANOMALY   = 191.2858

EPHEMERIS_TYPE = 0
CLASSIFICATION_TYPE = U
NORAD_CAT_ID   = 67273
ELEMENT_SET_NO = 999
REV_AT_EPOCH   = 320
BSTAR          = .16495956E-3
MEAN_MOTION_DOT = .3496E-4
MEAN_MOTION_DDOT = 0

CCSDS_OMM_VERS = 2.0
CREATION_DATE  = 
ORIGINATOR     = 

OBJECT_NAME    = 2025-313AC
OBJECT_ID      = 2025-313AC
CENTER_NAME    = EARTH
REF_FRAME      = TEME
TIME_SYSTEM    = UTC
MEAN_ELEMENT_THEORY = SGP/SGP4

EPOCH          = 2026-01-18T14:39:02.733984
MEAN_MOTION    = 15.20208989
ECCENTRICITY   = .00156282
INCLINATION    = 97.4105
RA_OF_ASC_NODE = 95.7143
ARG_OF_PERICENTER = 163.9766
MEAN_ANOMALY   = 196.1966

EPHEMERIS_TYPE = 0
CLASSIFICATION_TYPE = U
NORAD_CAT_ID   = 67274
ELEMENT_SET_NO = 999
REV_AT_EPOCH   = 320
BSTAR          = .32598896E-3
MEAN_MOTION_DOT = .7019E-4
MEAN_MOTION_DDOT = 0

CCSDS_OMM_VERS = 2.0
CREATION_DATE  = 
ORIGINATOR     = 

OBJECT_NAME    = 2025-313AD
OBJECT_ID      = 2025-313AD
CENTER_NAME    = EARTH
REF_FRAME      = TEME
TIME_SYSTEM    = UTC
MEAN_ELEMENT_THEORY = SGP/SGP4

EPOCH          = 2026-01-18T14:37:56.482464
MEAN_MOTION    = 15.20272617
ECCENTRICITY   = .00148083
INCLINATION    = 97.4080
RA_OF_ASC_NODE = 95.7087
ARG_OF_PERICENTER = 166.7126
MEAN_ANOMALY   = 193.4502

EPHEMERIS_TYPE = 0
CLASSIFICATION_TYPE = U
NORAD_CAT_ID   = 67275
ELEMENT_SET_NO = 999
REV_AT_EPOCH   = 320
BSTAR          = .35378849E-3
MEAN_MOTION_DOT = .7636E-4
MEAN_MOTION_DDOT = 0

