2025-313S               
1 67264U 25313S   26018.61206954  .00006179  00000+0  28841-3 0  9997
2 67264  97.4196  95.7212 0015926 169.0922 191.0661 15.20084047  3201
SITRO-TD-4              
1 67265U 25313T   26018.61060932  .00009333  00000+0  43173-3 0  9992
2 67265  97.4107  95.7155 0015855 164.9161 195.2550 15.20249989  3201
SITRO-AIS-65            
1 67266U 25313U   26018.61053238  .00009300  00000+0  43012-3 0  9990
2 67266  97.4135  95.7225 0015778 163.6330 196.5418 15.20257827  3206
2025-313V               
1 67267U 25313V   26018.60995647  .00010523  00000+0  48535-3 0  9993
2 67267  97.4117  95.7099 0014972 169.1194 191.0368 15.20329108  3206
ZORKY-2M 7              
1 67268U 25313W   26018.61088522  .00008511  00000+0  39448-3 0  9997
2 67268  97.4117  95.7070 0015946 164.4073 195.7656 15.20207240  3205
2025-313X               
1 67269U 25313X   26018.60940482  .00012754  00000+0  58567-3 0  9996
2 67269  97.4144  95.7259 0015733 162.9660 197.2106 15.20419346  3203
SITRO-TD-3              
1 67270U 25313Y   26018.61093092  .00009719  00000+0  44963-3 0  9997
2 67270  97.4117  95.7175 0015883 164.6087 195.5635 15.20235006  3207
2025-313Z               
1 67271U 25313Z   26018.61206210  .00005025  00000+0  23540-3 0  9990
2 67271  97.4111  95.7063 0015958 160.6302 199.5543 15.20044837  3209
2025-313AA              
1 67272U 25313AA  26018.60892423  .00010702  00000+0  49202-3 0  9998
2 67272  97.4116  95.7090 0015623 164.8911 195.2794 15.20425916  3208
2025-313AB              
1 67273U 25313AB  26018.61197601  .00003496  00000+0  16496-3 0  9997
2 67273  97.4128  95.7102 0014885 168.8709 191.2858 15.20020387  3204
2025-313AC              
1 67274U 25313AC  26018.61044831  .00007019  00000+0  32599-3 0  9991
2 67274  97.4105  95.7143 0015628 163.9766 196.1966 15.20208989  3200
2025-313AD              
1 67275U 25313AD  26018.60968151  .00007636  00000+0  35379-3 0  9995
2 67275  97.4080  95.7087 0014808 166.7126 193.4502 15.20272617  3205
